[{"OBJECT_NAME":"STARLINK-3560","OBJECT_ID":"2022-022H","EPOCH":"2026-03-09T01:25:57.071712","MEAN_MOTION":15.08833754,"ECCENTRICITY":0.00013855,"INCLINATION":53.2181,"RA_OF_ASC_NODE":11.955,"ARG_OF_PERICENTER":97.902,"MEAN_ANOMALY":262.213,"EPHEMERIS_TYPE":0,"CLASSIFICATION_TYPE":"U","NORAD_CAT_ID":51859,"ELEMENT_SET_NO":999,"REV_AT_EPOCH":22306,"BSTAR":-5.9470896e-5,"MEAN_MOTION_DOT":-1.234e-5,"MEAN_MOTION_DDOT":0},{"OBJECT_NAME":"FENGYUN 1C DEB","OBJECT_ID":"1999-025DWK","EPOCH":"2026-03-04T22:59:43.178496","MEAN_MOTION":14.75372926,"ECCENTRICITY":0.0170684,"INCLINATION":99.0756,"RA_OF_ASC_NODE":108.4567,"ARG_OF_PERICENTER":229.4091,"MEAN_ANOMALY":129.2157,"EPHEMERIS_TYPE":0,"CLASSIFICATION_TYPE":"U","NORAD_CAT_ID":36258,"ELEMENT_SET_NO":999,"REV_AT_EPOCH":92034,"BSTAR":0.000371885,"MEAN_MOTION_DOT":3.121e-5,"MEAN_MOTION_DDOT":0}]
